NORAD_CAT_ID,OBJECT_NAME,OBJECT_TYPE,EPOCH,MEAN_MOTION,ECCENTRICITY,INCLINATION,RA_OF_ASC_NODE,ARG_OF_PERICENTER,MEAN_ANOMALY,BSTAR,MEAN_MOTION_DOT,MEAN_MOTION_DDOT,TLE_LINE0,TLE_LINE1,TLE_LINE2,SEMIMAJOR_AXIS,PERIOD,APOGEE,PERIGEE,DECAYED
53154.0,STARLINK-4077,PAYLOAD,2022-07-30 22:00:00,15.73182499,0.0001223,53.2168,340.8777,60.4568,316.4897,0.00020267,0.00027896,0.0,0 STARLINK-4077,1 53154U 22083Y   22211.91667824  .00027896  00000-0  20267-3 0  9996,2 53154  53.2168 340.8777 0001223  60.4568 316.4897 15.73182499  1309,6727.945,91.534,350.6330000000001,348.987,0.0
53154.0,STARLINK-4077,PAYLOAD,2022-07-31 06:00:02,15.73191825,0.0001496999999999,53.2175,339.225,59.2758,46.7225,0.00047808,0.00066989,0.0,0 STARLINK-4077,1 53154U 22083Y   22212.25002315  .00066989  00000-0  47808-3 0  9998,2 53154  53.2175 339.2250 0001497  59.2758  46.7225 15.73191825  2802,6727.918000000002,91.534,350.791,348.776,0.0
53154.0,STARLINK-4077,PAYLOAD,2022-07-31 14:00:01,15.73251586,0.0001599,53.2176,337.5772,51.3658,143.5149,-0.00071177,-0.00099561,0.0,0 STARLINK-4077,1 53154U 22083Y   22212.58334491 -.00099561  00000-0 -71177-3 0  9997,2 53154  53.2176 337.5772 0001599  51.3658 143.5149 15.73251586  2855,6727.748000000001,91.53,350.689,348.537,0.0
53154.0,STARLINK-4077,PAYLOAD,2022-07-31 20:00:01,15.73171167,0.000156,53.2173,336.3408,43.8715,127.7429,0.00046305,0.00064789,0.0,0 STARLINK-4077,1 53154U 22083Y   22212.83334491  .00064789  00000-0  46305-3 0  9992,2 53154  53.2173 336.3408 0001560  43.8715 127.7429 15.73171167  2898,6727.977,91.535,350.892,348.793,0.0
53154.0,STARLINK-4077,PAYLOAD,2022-07-31 22:00:00,15.73203934,0.0001529,53.2171,335.9279,43.9569,239.8774,7.0894e-05,9.342e-05,0.0,0 STARLINK-4077,1 53154U 22083Y   22212.91667824  .00009342  00000-0  70894-4 0  9995,2 53154  53.2171 335.9279 0001529  43.9569 239.8774 15.73203934  1301,6727.884,91.533,350.778,348.72,0.0
53154.0,STARLINK-4077,PAYLOAD,2022-08-01 14:00:01,15.73238495,0.0001402,53.2171,332.6292,40.4038,61.3236,-0.00062035,-0.00086931,0.0,0 STARLINK-4077,1 53154U 22083Y   22213.58334491 -.00086931  00000-0 -62035-3 0  9998,2 53154  53.2171 332.6292 0001402  40.4038  61.3236 15.73238495  3014,6727.785,91.531,350.594,348.707,0.0
53154.0,STARLINK-4077,PAYLOAD,2022-08-01 22:00:00,15.73202898,0.0001412,53.217,330.9797,34.7388,155.9187,-1.3395e-05,-2.5e-05,0.0,0 STARLINK-4077,1 53154U 22083Y   22213.91667824 -.00002500  00000-0 -13395-4 0  9990,2 53154  53.2170 330.9797 0001412  34.7388 155.9187 15.73202898  3067,6727.887,91.533,350.702,348.802,0.0
53154.0,STARLINK-4077,PAYLOAD,2022-08-02 14:00:01,15.73184174,0.000169,53.2174,327.6808,43.2606,325.2846,-8.292799999999999e-05,-0.00012234,0.0,0 STARLINK-4077,1 53154U 22083Y   22214.58334491 -.00012234  00000-0 -82928-4 0  9998,2 53154  53.2174 327.6808 0001690  43.2606 325.2846 15.73184174  1308,6727.94,91.534,350.94199999999995,348.668,0.0
53154.0,STARLINK-4077,PAYLOAD,2022-08-03 04:00:00,15.73176879,0.000155,53.217,324.7926,44.9532,29.1894,0.00054321,0.00076235,0.0,0 STARLINK-4077,1 53154U 22083Y   22215.16667824  .00076235  00000-0  54321-3 0  9996,2 53154  53.2170 324.7926 0001550  44.9532  29.1894 15.73176879  3256,6727.9609999999975,91.535,350.869,348.783,0.0
53154.0,STARLINK-4077,PAYLOAD,2022-08-03 12:00:00,15.73258254,0.0001639,53.2169,323.1445,40.1404,122.9273,-0.00075178,-0.00105085,0.0,0 STARLINK-4077,1 53154U 22083Y   22215.50001157 -.00105085  00000-0 -75178-3 0  9996,2 53154  53.2169 323.1445 0001639  40.1404 122.9273 15.73258254  3315,6727.729,91.53,350.69699999999995,348.491,0.0
53154.0,STARLINK-4077,PAYLOAD,2022-08-03 14:00:01,15.7323549,0.0001685,53.2168,322.7327,38.3424,236.9721,-0.00061853,-0.00086673,0.0,0 STARLINK-4077,1 53154U 22083Y   22215.58334491 -.00086673  00000-0 -61853-3 0  9990,2 53154  53.2168 322.7327 0001685  38.3424 236.9721 15.73235490  1308,6727.794,91.531,350.793,348.525,0.0
53154.0,STARLINK-4077,PAYLOAD,2022-08-03 20:00:01,15.73181929,0.0001652,53.2165,321.4955,30.5881,221.4398,0.00025617,0.00035456,0.0,0 STARLINK-4077,1 53154U 22083Y   22215.83334491  .00035456  00000-0  25617-3 0  9997,2 53154  53.2165 321.4955 0001652  30.5881 221.4398 15.73181929  3367,6727.946999999999,91.534,350.923,348.7,0.0
53154.0,STARLINK-4077,PAYLOAD,2022-08-03 22:00:01,15.7320415,0.0001621,53.2167,321.0826,31.8478,332.4688,-9.0193e-06,-1.886e-05,0.0,0 STARLINK-4077,1 53154U 22083Y   22215.91668981 -.00001886  00000-0 -90193-5 0  9995,2 53154  53.2167 321.0826 0001621  31.8478 332.4688 15.73204150  1303,6727.8830000000025,91.533,350.839,348.658,0.0
53154.0,STARLINK-4077,PAYLOAD,2022-08-04 12:00:00,15.73235147,0.0001616,53.2171,318.196,28.9949,40.8931,-0.00061374,-0.00086011,0.0,0 STARLINK-4077,1 53154U 22083Y   22216.50001157 -.00086011  00000-0 -61374-3 0  9997,2 53154  53.2171 318.1960 0001616  28.9949  40.8931 15.73235147  3468,6727.795,91.531,350.747,348.5730000000001,0.0
53154.0,STARLINK-4077,PAYLOAD,2022-08-04 14:00:01,15.73193406,0.000172,53.2171,317.7839,27.2956,154.8398,-0.00012446,-0.00018046,0.0,0 STARLINK-4077,1 53154U 22083Y   22216.58334491 -.00018046  00000-0 -12446-3 0  9994,2 53154  53.2171 317.7839 0001720  27.2956 154.8398 15.73193406  1309,6727.9140000000025,91.534,350.936,348.622,0.0
53154.0,STARLINK-4077,PAYLOAD,2022-08-04 20:00:01,15.73190698,0.0001727,53.2167,316.5468,23.7519,135.0659,0.00015432,0.00021083,0.0,0 STARLINK-4077,1 53154U 22083Y   22216.83334491  .00021083  00000-0  15432-3 0  9993,2 53154  53.2167 316.5468 0001727  23.7519 135.0659 15.73190698  3529,6727.922,91.534,350.949,348.625,0.0
53154.0,STARLINK-4077,PAYLOAD,2022-08-04 22:00:00,15.73209547,0.0001665999999999,53.2167,316.1338,24.4932,246.5499,-7.2147e-05,-0.00010737,0.0,0 STARLINK-4077,1 53154U 22083Y   22216.91667824 -.00010737  00000-0 -72147-4 0  9994,2 53154  53.2167 316.1338 0001666  24.4932 246.5499 15.73209547  1308,6727.868,91.533,350.85400000000016,348.612,0.0
53154.0,STARLINK-4077,PAYLOAD,2022-08-05 14:00:01,15.73195227,0.0001885,53.2166,312.8356,30.0059,59.0082,7.0725e-06,3.72e-06,0.0,0 STARLINK-4077,1 53154U 22083Y   22217.58335648  .00000372  00000-0  70725-5 0  9997,2 53154  53.2166 312.8356 0001885  30.0059  59.0082 15.73195227  1300,6727.909000000002,91.533,351.042,348.506,0.0
53154.0,STARLINK-4077,PAYLOAD,2022-08-05 22:00:00,15.73228962,0.0001843,53.2166,311.1851,29.6987,148.1624,-0.00020651,-0.00029539,0.0,0 STARLINK-4077,1 53154U 22083Y   22217.91667824 -.00029539  00000-0 -20651-3 0  9997,2 53154  53.2166 311.1851 0001843  29.6987 148.1624 15.73228962  3699,6727.813,91.531,350.918,348.43800000000016,0.0
53154.0,STARLINK-4077,PAYLOAD,2022-08-06 14:00:01,15.73184066,0.0002003,53.2171,307.8868,26.7306,329.0078,0.0001918,0.00026364,0.0,0 STARLINK-4077,1 53154U 22083Y   22218.58334491  .00026364  00000-0  19180-3 0  9998,2 53154  53.2171 307.8868 0002003  26.7306 329.0078 15.73184066  1302,6727.941,91.534,351.153,348.458,0.0
53154.0,STARLINK-4077,PAYLOAD,2022-08-06 20:00:01,15.7324298,0.0002046999999999,53.2168,306.6493,25.4756,306.9447,-0.00062575,-0.000877,0.0,0 STARLINK-4077,1 53154U 22083Y   22218.83334491 -.00087700  00000-0 -62575-3 0  9995,2 53154  53.2168 306.6493 0002047  25.4756 306.9447 15.73242980  3836,6727.773,91.531,351.015,348.26,0.0
53154.0,STARLINK-4077,PAYLOAD,2022-08-06 22:00:00,15.73235395,0.0002006999999999,53.2169,306.2363,27.7326,56.927,-0.00067745,-0.00094785,0.0,0 STARLINK-4077,1 53154U 22083Y   22218.91667824 -.00094785  00000-0 -67745-3 0  9998,2 53154  53.2169 306.2363 0002007  27.7326  56.9270 15.73235395  1301,6727.794,91.531,351.01,348.309,0.0
53154.0,STARLINK-4077,PAYLOAD,2022-08-07 12:00:00,15.73192113,0.0002177,53.2166,303.3507,31.16,119.0963,5.0975e-05,6.536e-05,0.0,0 STARLINK-4077,1 53154U 22083Y   22219.50001157  .00006536  00000-0  50975-4 0  9998,2 53154  53.2166 303.3507 0002177  31.1600 119.0963 15.73192113  3940,6727.918000000002,91.534,351.247,348.3180000000001,0.0
53154.0,STARLINK-4077,PAYLOAD,2022-08-07 12:53:20,15.73186281,0.0001862,53.2167,303.1663,44.0289,316.088,7.6623e-05,0.0001014,0.0,0 STARLINK-4077,1 53154U 22083Y   22219.53703901  .00010140  00000-0  76623-4 0  9991,2 53154  53.2167 303.1663 0001862  44.0289 316.0880 15.73186281  3326,6727.934,91.534,351.052,348.547,0.0
53154.0,STARLINK-4077,PAYLOAD,2022-08-07 20:00:01,15.73263243,0.0002133,53.2165,301.7009,27.7327,211.449,-0.00054625,-0.00076803,0.0,0 STARLINK-4077,1 53154U 22083Y   22219.83334491 -.00076803  00000-0 -54625-3 0  9995,2 53154  53.2165 301.7009 0002133  27.7327 211.4490 15.73263243  3997,6727.715,91.53,351.015,348.145,0.0
53154.0,STARLINK-4077,PAYLOAD,2022-08-07 22:00:00,15.73262359,0.0002059,53.2168,301.288,27.7121,323.7136,-0.00065959,-0.00092435,0.0,0 STARLINK-4077,1 53154U 22083Y   22219.91667824 -.00092435  00000-0 -65959-3 0  9994,2 53154  53.2168 301.2880 0002059  27.7121 323.7136 15.73262359  1305,6727.717,91.53,350.968,348.19699999999995,0.0
53154.0,STARLINK-4077,PAYLOAD,2022-08-08 04:00:00,15.73181579,0.0001955,53.2169,300.0496,28.358,299.8038,0.00052385,0.00073489,0.0,0 STARLINK-4077,1 53154U 22083Y   22220.16667824  .00073489  00000-0  52385-3 0  9998,2 53154  53.2169 300.0496 0001955  28.3580 299.8038 15.73181579  4048,6727.948,91.534,351.12800000000016,348.497,0.0
53154.0,STARLINK-4077,PAYLOAD,2022-08-08 14:00:01,15.73253555,0.0002272,53.2172,297.99,24.5273,144.9022,0.00018369,0.00025297,0.0,0 STARLINK-4077,1 53154U 22083Y   22220.58335648  .00025297  00000-0  18369-3 0  9998,2 53154  53.2172 297.9900 0002272  24.5273 144.9022 15.73253555  1309,6727.7419999999975,91.53,351.136,348.079,0.0
53154.0,STARLINK-4077,PAYLOAD,2022-08-08 20:00:01,15.73318651,0.0002263,53.2168,296.752,22.8141,123.369,-0.00092937,-0.00129737,0.0,0 STARLINK-4077,1 53154U 22083Y   22220.83335648 -.00129737  00000-0 -92937-3 0  9995,2 53154  53.2168 296.7520 0002263  22.8141 123.3690 15.73318651  4151,6727.557,91.526,350.944,347.899,0.0
